SEEDS II (CO-66)        
1 32791U 08021J   26098.22603227  .00018874  00000+0  64324-3 0  9991
2 32791  97.7533  92.9197 0003469 152.9212 207.2209 15.30423920976585
YUBILEINY (RS30)        
1 32953U 08025A   26098.16296347  .00000024  00000+0  98085-4 0  9999
2 32953  82.5063  38.9882 0020465 102.5257 257.8113 12.43177136810994
KKS-1 (KISEKI)          
1 33499U 09002H   26098.15480235  .00001638  00000+0  20864-3 0  9992
2 33499  98.1186  19.5005 0008477 148.4304 211.7419 14.82944302925810
SWISSCUBE               
1 35932U 09051B   26098.17433615  .00001190  00000+0  24521-3 0  9999
2 35932  98.4074   4.8377 0008078  73.0626 287.1459 14.62345261878926
BEESAT-1                
1 35933U 09051C   26098.01093463  .00001026  00000+0  21630-3 0  9992
2 35933  98.4003   4.4520 0006568  85.4377 274.7573 14.61604964878934
ITUPSAT1                
1 35935U 09051E   26098.00913103  .00000947  00000+0  20583-3 0  9992
2 35935  98.4090   3.7154 0008741  94.8813 265.3385 14.60333951878493
XIWANG-1 (HOPE-1)       
1 36122U 09072B   26098.17269196 -.00000179  00000+0 -35202-3 0  9991
2 36122 100.3971  53.1446 0007971  37.3439 322.8227 13.16435811783796
O/OREOS (USA 219)       
1 37224U 10062C   26098.13890328  .00002720  00000+0  26380-3 0  9998
2 37224  71.9710 238.9691 0015513 206.5637 153.4740 14.93463551106188
JUGNU                   
1 37839U 11058B   26098.15672314  .00000495  00000+0  11912-3 0  9993
2 37839  19.9624  13.8788 0018504  23.5273 123.5398 14.13755031749100
SRMSAT                  
1 37841U 11058D   26098.08962447  .00000418  00000+0  83259-4 0  9996
2 37841  19.9709 123.7519 0011836 151.7311 237.5403 14.11558709747908
STRAND-1                
1 39090U 13009E   26097.94589514  .00000358  00000+0  13477-3 0  9993
2 39090  98.3909 279.9130 0009844  82.7064 277.5242 14.37121435686970
ZACUBE-1 (TSHEPISOSAT)  
1 39417U 13066B   26098.13940359  .00004142  00000+0  32568-3 0  9996
2 39417  97.8139  60.1075 0045017 124.6607 235.8872 15.00624844670221
GOMX-1                  
1 39430U 13066Q   26098.17883266  .00001700  00000+0  26259-3 0  9995
2 39430  97.6536 303.0434 0127958 302.7682  56.1248 14.69217654659634
CUBEBUG-2 (LO-74)       
1 39440U 13066AA  26098.11705038  .00003588  00000+0  33790-3 0  9994
2 39440  97.8845  46.8519 0056560 259.5222  99.9621 14.93295013666534
FUNCUBE-1 (AO-73)       
1 39444U 13066AE  26098.16533892  .00008045  00000+0  51091-3 0  9997
2 39444  97.8236  68.2256 0039159  82.6064 277.9611 15.08498433669103
UWE-3                   
1 39446U 13066AG  26097.81883360  .00004440  00000+0  38693-3 0  9996
2 39446  97.8640  53.4788 0049122 192.0703 167.9345 14.96487622667055
UNISAT-6                
1 40012U 14033C   26098.13205508  .00002383  00000+0  26216-3 0  9992
2 40012  97.7788 252.1316 0044113 300.1315  59.5533 14.87849826635743
DUCHIFAT-1              
1 40021U 14033M   26098.10515445  .00062831  00000+0  96841-3 0  9998
2 40021  98.0566 148.0832 0002884 325.3382  34.7681 15.53965649644834
QB50P1                  
1 40025U 14033R   26097.99994377  .00008376  00000+0  42488-3 0  9995
2 40025  98.1005 104.2790 0010807 104.4000 255.8432 15.17172366642385
LILACSAT-2              
1 40908U 15049K   26098.17422234  .00016294  00000+0  30012-3 0  9990
2 40908  97.4754 132.4384 0008652 137.0417 223.1511 15.49204728584901
FOX-1A (AO-85)          
1 40967U 15058D   26098.18242068  .00001933  00000+0  18419-3 0  9992
2 40967  64.7741 136.4639 0128332  84.0901 277.4821 14.90559783103130
CAS-2T & KS-1Q          
1 41847U 16066G   26098.21427578  .00000830  00000+0  12605-3 0  9991
2 41847  98.3844 174.7366 0341891 342.0663  16.8700 14.44546566494695
RADFXSAT (FOX-1B)       
1 43017U 17073E   26097.53145764  .00008634  00000+0  38705-3 0  9998
2 43017  97.4798 326.2235 0153075 211.8928 147.2967 15.11491616454718
DIWATA-2B               
1 43678U 18084H   26098.13964209  .00002011  00000+0  16617-3 0  9995
2 43678  98.1043 291.3870 0013914  40.8644 319.3619 15.00122229405712
ES'HAIL 2               
1 43700U 18090A   26098.07683734  .00000146  00000+0  00000+0 0  9994
2 43700   0.0164 190.8255 0001291 207.1323 211.8542  1.00271136 26976
FOX-1CLIFF (AO-95)      
1 43770U 18099N   26098.10843597  .00011267  00000+0  45049-3 0  9991
2 43770  97.4446 158.6728 0008042 226.7501 133.3066 15.25242665402535
ITASAT                  
1 43786U 18099AE  26098.10971965  .00006331  00000+0  31252-3 0  9996
2 43786  97.4100 151.0408 0011614 231.9931 128.0256 15.18179406402272
JY1SAT (JO-97)          
1 43803U 18099AX  26098.16572957  .00017433  00000+0  57452-3 0  9995
2 43803  97.4194 160.8554 0006982 150.1474 210.0167 15.31503132402906
UWE-4                   
1 43880U 18111E   26097.76628225  .00031503  00000+0  73650-3 0  9992
2 43880  97.5848  23.1537 0007244 199.7589 160.3378 15.42081117399911
TIANYAN 01              
1 44881U 19093C   26098.17144338  .00001563  00000+0  18288-3 0  9997
2 44881  97.7562 172.1047 0012601 322.9711  37.0634 14.86412478341017
RS-44 & BREEZE-KM R/B   
1 44909U 19096E   26098.18966928  .00000023  00000+0  56163-4 0  9994
2 44909  82.5258  26.2142 0216664 308.2750  49.9033 12.79747844293392
SALSAT                  
1 46495U 20068K   26097.93656031  .00008337  00000+0  30053-3 0  9995
2 46495  97.8870  96.7832 0009912 178.3889 181.7383 15.28780815304620
XW-3 (CAS-9)            
1 50466U 21131B   26098.21721516  .00000614  00000+0  20364-3 0  9997
2 50466  98.4946 191.0006 0003156 321.7331  38.3633 14.41291166225038
GREENCUBE (IO-117)      
1 53109U 22080E   26097.99227897 -.00000003  00000+0  00000+0 0  9999
2 53109  70.1515 322.6687 0009015 305.1086  54.8728  6.42583228 87550
UMKA 1 (RS40S)          
1 57172U 23091G   26098.19983190  .00005809  00000+0  27191-3 0  9996
2 57172  97.5115 157.1845 0012950  11.3699 348.7825 15.20057450153374
CUBESX-HSE 3 (RS42S)    
1 57178U 23091N   26098.20895185  .00013006  00000+0  45587-3 0  9997
2 57178  97.5146 162.9872 0010276 347.4991  12.5992 15.29546429153723
MONITOR-3 (RS58S)       
1 57180U 23091Q   26098.15276815  .00009283  00000+0  35767-3 0  9998
2 57180  97.5141 161.1389 0011360 354.1679   5.9425 15.26508923153606
MONITOR-4 (RS57S)       
1 57182U 23091S   26098.13618300  .00010126  00000+0  38874-3 0  9997
2 57182  97.5134 161.0889 0011375 354.6140   5.4974 15.26601507153604
MONITOR-2 (RS39S)       
1 57184U 23091U   26098.20260601  .00004541  00000+0  22451-3 0  9992
2 57184  97.5139 156.9476 0011170   4.8496 355.2844 15.18289381153332
SVYATOBOR 1 (RS60S)     
1 57187U 23091X   26098.15907478  .00008374  00000+0  33334-3 0  9999
2 57187  97.5146 161.6314 0008873 347.9721  12.1304 15.25476552153634
VIZARD-METEO (RS38S)    
1 57189U 23091Z   26098.19572245  .00017200  00000+0  52579-3 0  9995
2 57189  97.5137 166.3815 0006297 327.6747  32.4109 15.33919739153956
NANOZOND 1 (RS49S)      
1 57190U 23091AA  26098.01069591  .00704622  21731-3  16814-2 0  9993
2 57190  97.4936 180.9890 0008289 260.3151  99.7189 15.96574349154918
POLYTECH-UNIVERSE 3 (R*)
1 57191U 23091AB  26098.17303424  .00005331  00000+0  26107-3 0  9997
2 57191  97.5114 156.4237 0015962  19.1368 341.0462 15.18483190153325
UTMN 2 (RS27S)          
1 57203U 23091AP  26098.20039308  .00013424  00000+0  45839-3 0  9997
2 57203  97.5138 164.5259 0007224 335.7534  24.3366 15.30415407153833
KUZGTU 1 (RS47S)        
1 57217U 23091AV  26098.20727608  .00011764  00000+0  42803-3 0  9992
2 57217  97.5119 162.0404 0010554 351.2271   8.8782 15.28343527153685
SONATE-2                
1 59112U 24043Q   26097.92074049  .00035288  00000+0  54741-3 0  9999
2 59112  97.5451 244.3190 0007663 102.1656 258.0456 15.53888311116963
MESAT1                  
1 60209U 24125G   26097.85121953  .00043610  00000+0  61045-3 0  9991
2 60209  97.2405 314.0582 0012760 116.8965 243.3596 15.56591300 98601
OOV-CUBE (TUBSAT-30)    
1 60240U 24128F   26098.18121406  .00001930  00000+0  15668-3 0  9998
2 60240  61.9934 109.6159 0052034 118.4440 242.1908 15.02438748 95599
COLIBRI-S (RS67S)       
1 61746U 24199M   26098.16971546  .00021368  00000+0  45471-3 0  9996
2 61746  97.3100 331.4968 0009615 163.8981 196.2575 15.44936183126599
HORS 3 (RS81S)          
1 61753U 24199U   26098.16097604  .00032198  00000+0  56291-3 0  9993
2 61753  97.3074 332.8160 0007724 163.9685 196.1813 15.50557680126690
HORS 4 (RS82S)          
1 61754U 24199V   26098.17078071  .00040703  00000+0  63026-3 0  9997
2 61754  97.3039 333.6490 0007346 158.6937 201.4624 15.53911244126758
HORIZON (RS59S)         
1 61757U 24199Y   26098.09740630  .00234590  00000+0  11582-2 0  9996
2 61757  97.2977 338.4181 0006570 141.9262 218.2472 15.81437815127054
ARCTICSAT 1 (RS74S)     
1 61762U 24199AD  26098.03044987  .00141720  00000+0  10128-2 0  9995
2 61762  97.3007 337.6096 0006869 137.5800 222.5996 15.73304793126991
SIT-2086                
1 61764U 24199AF  26098.19064788  .00024480  00000+0  44850-3 0  9998
2 61764  97.3064 333.5303 0007421 153.3925 206.7708 15.49279607123586
HYPERVIEW 1G (RS66S)    
1 61772U 24199AP  26098.19608085  .00081864  00000+0  90657-3 0  9996
2 61772  97.3014 335.1211 0008625 158.7377 201.4241 15.62682540123700
ALTAIR (RS65S)          
1 61779U 24199AW  26098.16056320  .00011807  00000+0  34103-3 0  9993
2 61779  97.3128 328.0025 0012834 190.2219 169.8766 15.35731256126363
ASRTU-1 (AO-123)        
1 61781U 24199AY  26098.15897132  .00007890  00000+0  23651-3 0  9992
2 61781  97.3101 327.4736 0013695 193.1195 166.9694 15.34667373123182
TUSUR GO (RS78S)        
1 61782U 24199AZ  26098.14944224  .00328662  00000+0  14300-2 0  9990
2 61782  97.2923 337.5219 0006738 149.8355 210.3304 15.83923855123869
SAMSAT-IONOSPHERE (RS7*)
1 61784U 24199BB  26098.15931367  .00038121  00000+0  62870-3 0  9991
2 61784  97.3057 332.6641 0010378 168.1530 191.9969 15.52139688126682
